0 OPS 5712 (P/L 153)
1 02874U 67053H   13281.49270955  .00000012  00000-0  47226-4 0  5329
2 02874 069.9743 322.2160 0004492 084.2050 342.8544 13.96095017360252
0 OPS 5712 (P/L 153)
1 02874U 67053H   13282.51158071  .00000024  00000-0  56131-4 0  5336
2 02874 069.9742 320.0349 0004494 081.7794 064.7453 13.96095287360398
0 OPS 5712 (P/L 153)
1 02874U 67053H   13283.51978829  .00000047  00000-0  73145-4 0  5348
2 02874 069.9740 317.8763 0004505 079.7227 092.6892 13.96095291360539
0 OPS 5712 (P/L 153)
1 02874U 67053H   13284.52098919  .00000062  00000-0  84210-4 0  5356
2 02874 069.9739 315.7329 0004527 077.6190 085.4745 13.96095231360678
0 OPS 5712 (P/L 153)
1 02874U 67053H   13285.58882376  .00000050  00000-0  75151-4 0  5363
2 02874 069.9736 313.4468 0004551 075.4086 053.1767 13.96095393360823
0 OPS 5712 (P/L 153)
1 02874U 67053H   13286.66548050  .00000025  00000-0  56633-4 0  5378
2 02874 069.9735 311.1417 0004575 073.1489 065.2554 13.96095835360974
0 OPS 5712 (P/L 153)
1 02874U 67053H   13287.73610103  .00000003  00000-0  41130-4 0  5389
2 02874 069.9735 308.8495 0004598 070.8527 047.0411 13.96096358361124
0 OPS 5712 (P/L 153)
1 02874U 67053H   13288.73797578  .00000002  00000-0  39857-4 0  5395
2 02874 069.9734 306.7043 0004622 068.7799 043.1826 13.96096627361265
0 OPS 5712 (P/L 153)
1 02874U 67053H   13289.74038435  .00000011  00000-0  46643-4 0  5400
2 02874 069.9735 304.5581 0004652 066.7830 041.9329 13.96096721361401
0 OPS 5712 (P/L 153)
1 02874U 67053H   13291.16046395  .00000025  00000-0  56904-4 0  5410
2 02874 069.9736 301.5175 0004695 064.1573 339.9657 13.96096726361602
0 OPS 5712 (P/L 153)
1 02874U 67053H   13292.16793527  .00000033  00000-0  62877-4 0  5423
2 02874 069.9737 299.3604 0004733 062.1227 004.1935 13.96096837361749
0 OPS 5712 (P/L 153)
1 02874U 67053H   13293.17174003  .00000026  00000-0  57810-4 0  5431
2 02874 069.9737 297.2112 0004769 060.0265 010.0587 13.96097080361883
0 OPS 5712 (P/L 153)
1 02874U 67053H   13294.17525328  .00000024  00000-0  56425-4 0  5442
2 02874 069.9738 295.0628 0004807 057.9529 014.4368 13.96097341362025
0 OPS 5712 (P/L 153)
1 02874U 67053H   13295.40782199  .00000057  00000-0  80083-4 0  5454
2 02874 069.9738 292.4239 0004859 055.5727 090.0482 13.96097383362196
